CCSDS_OMM_VERS = 2.0
CREATION_DATE  = 
ORIGINATOR     = 

OBJECT_NAME    = SL-14 R/B
OBJECT_ID      = 1988-001B
CENTER_NAME    = EARTH
REF_FRAME      = TEME
TIME_SYSTEM    = UTC
MEAN_ELEMENT_THEORY = SGP/SGP4

EPOCH          = 2025-11-27T21:23:32.927712
MEAN_MOTION    = 14.85399223
ECCENTRICITY   = .0017163
INCLINATION    = 82.5118
RA_OF_ASC_NODE = 291.1142
ARG_OF_PERICENTER = 210.6954
MEAN_ANOMALY   = 149.3259

EPHEMERIS_TYPE = 0
CLASSIFICATION_TYPE = U
NORAD_CAT_ID   = 18749
ELEMENT_SET_NO = 999
REV_AT_EPOCH   = 2691
BSTAR          = .71553E-4
MEAN_MOTION_DOT = .641E-5
MEAN_MOTION_DDOT = 0

CCSDS_OMM_VERS = 2.0
CREATION_DATE  = 
ORIGINATOR     = 

OBJECT_NAME    = COSMOS 1933
OBJECT_ID      = 1988-020A
CENTER_NAME    = EARTH
REF_FRAME      = TEME
TIME_SYSTEM    = UTC
MEAN_ELEMENT_THEORY = SGP/SGP4

EPOCH          = 2025-11-28T02:37:47.693856
MEAN_MOTION    = 15.16935168
ECCENTRICITY   = .0004404
INCLINATION    = 82.5141
RA_OF_ASC_NODE = 351.3337
ARG_OF_PERICENTER = 170.8997
MEAN_ANOMALY   = 189.2317

EPHEMERIS_TYPE = 0
CLASSIFICATION_TYPE = U
NORAD_CAT_ID   = 18958
ELEMENT_SET_NO = 999
REV_AT_EPOCH   = 3482
BSTAR          = .21391E-3
MEAN_MOTION_DOT = .4248E-4
MEAN_MOTION_DDOT = 0

CCSDS_OMM_VERS = 2.0
CREATION_DATE  = 
ORIGINATOR     = 

OBJECT_NAME    = SL-3 R/B
OBJECT_ID      = 1988-032B
CENTER_NAME    = EARTH
REF_FRAME      = TEME
TIME_SYSTEM    = UTC
MEAN_ELEMENT_THEORY = SGP/SGP4

EPOCH          = 2025-11-28T02:26:46.559328
MEAN_MOTION    = 15.18519741
ECCENTRICITY   = .0025268
INCLINATION    = 97.5072
RA_OF_ASC_NODE = 310.9275
ARG_OF_PERICENTER = 225.3427
MEAN_ANOMALY   = 134.5748

EPHEMERIS_TYPE = 0
CLASSIFICATION_TYPE = U
NORAD_CAT_ID   = 19046
ELEMENT_SET_NO = 999
REV_AT_EPOCH   = 3668
BSTAR          = .30711E-3
MEAN_MOTION_DOT = .6321E-4
MEAN_MOTION_DDOT = 0

CCSDS_OMM_VERS = 2.0
CREATION_DATE  = 
ORIGINATOR     = 

OBJECT_NAME    = SL-16 R/B
OBJECT_ID      = 1988-039B
CENTER_NAME    = EARTH
REF_FRAME      = TEME
TIME_SYSTEM    = UTC
MEAN_ELEMENT_THEORY = SGP/SGP4

EPOCH          = 2025-11-28T03:51:47.890080
MEAN_MOTION    = 14.19592960
ECCENTRICITY   = .0020283
INCLINATION    = 71.0146
RA_OF_ASC_NODE = 283.2231
ARG_OF_PERICENTER = 140.6297
MEAN_ANOMALY   = 219.6308

EPHEMERIS_TYPE = 0
CLASSIFICATION_TYPE = U
NORAD_CAT_ID   = 19120
ELEMENT_SET_NO = 999
REV_AT_EPOCH   = 94397
BSTAR          = -.93883E-5
MEAN_MOTION_DOT = -.68E-6
MEAN_MOTION_DDOT = 0

CCSDS_OMM_VERS = 2.0
CREATION_DATE  = 
ORIGINATOR     = 

OBJECT_NAME    = COSMOS 1953
OBJECT_ID      = 1988-050A
CENTER_NAME    = EARTH
REF_FRAME      = TEME
TIME_SYSTEM    = UTC
MEAN_ELEMENT_THEORY = SGP/SGP4

EPOCH          = 2025-11-28T05:17:24.624096
MEAN_MOTION    = 15.26680881
ECCENTRICITY   = .0013625
INCLINATION    = 82.5084
RA_OF_ASC_NODE = 260.1463
ARG_OF_PERICENTER = 115.4889
MEAN_ANOMALY   = 244.7760

EPHEMERIS_TYPE = 0
CLASSIFICATION_TYPE = U
NORAD_CAT_ID   = 19210
ELEMENT_SET_NO = 999
REV_AT_EPOCH   = 2229
BSTAR          = .28217E-3
MEAN_MOTION_DOT = .7456E-4
MEAN_MOTION_DDOT = 0

CCSDS_OMM_VERS = 2.0
CREATION_DATE  = 
ORIGINATOR     = 

OBJECT_NAME    = SL-8 R/B
OBJECT_ID      = 1988-053B
CENTER_NAME    = EARTH
REF_FRAME      = TEME
TIME_SYSTEM    = UTC
MEAN_ELEMENT_THEORY = SGP/SGP4

EPOCH          = 2025-11-28T01:56:02.091264
MEAN_MOTION    = 14.38845437
ECCENTRICITY   = .0019413
INCLINATION    = 74.0471
RA_OF_ASC_NODE = 299.7371
ARG_OF_PERICENTER = 148.9510
MEAN_ANOMALY   = 283.5097

EPHEMERIS_TYPE = 0
CLASSIFICATION_TYPE = U
NORAD_CAT_ID   = 19257
ELEMENT_SET_NO = 999
REV_AT_EPOCH   = 96198
BSTAR          = .98926E-4
MEAN_MOTION_DOT = .279E-5
MEAN_MOTION_DDOT = 0

CCSDS_OMM_VERS = 2.0
CREATION_DATE  = 
ORIGINATOR     = 

OBJECT_NAME    = COSMOS 1975
OBJECT_ID      = 1988-093A
CENTER_NAME    = EARTH
REF_FRAME      = TEME
TIME_SYSTEM    = UTC
MEAN_ELEMENT_THEORY = SGP/SGP4

EPOCH          = 2025-11-28T02:17:32.381952
MEAN_MOTION    = 15.26148996
ECCENTRICITY   = .0011704
INCLINATION    = 82.5210
RA_OF_ASC_NODE = 219.4837
ARG_OF_PERICENTER = 159.3056
MEAN_ANOMALY   = 200.8659

EPHEMERIS_TYPE = 0
CLASSIFICATION_TYPE = U
NORAD_CAT_ID   = 19573
ELEMENT_SET_NO = 999
REV_AT_EPOCH   = 390
BSTAR          = .39053E-3
MEAN_MOTION_DOT = .10138E-3
MEAN_MOTION_DDOT = 0

CCSDS_OMM_VERS = 2.0
CREATION_DATE  = 
ORIGINATOR     = 

OBJECT_NAME    = SL-14 R/B
OBJECT_ID      = 1988-093B
CENTER_NAME    = EARTH
REF_FRAME      = TEME
TIME_SYSTEM    = UTC
MEAN_ELEMENT_THEORY = SGP/SGP4

EPOCH          = 2025-11-27T21:34:09.635232
MEAN_MOTION    = 14.85524859
ECCENTRICITY   = .0021208
INCLINATION    = 82.5292
RA_OF_ASC_NODE = 137.5947
ARG_OF_PERICENTER = 19.0663
MEAN_ANOMALY   = 93.3330

EPHEMERIS_TYPE = 0
CLASSIFICATION_TYPE = U
NORAD_CAT_ID   = 19574
ELEMENT_SET_NO = 999
REV_AT_EPOCH   = 98592
BSTAR          = .68395E-4
MEAN_MOTION_DOT = .617E-5
MEAN_MOTION_DDOT = 0

CCSDS_OMM_VERS = 2.0
CREATION_DATE  = 
ORIGINATOR     = 

OBJECT_NAME    = SL-16 R/B
OBJECT_ID      = 1988-102B
CENTER_NAME    = EARTH
REF_FRAME      = TEME
TIME_SYSTEM    = UTC
MEAN_ELEMENT_THEORY = SGP/SGP4

EPOCH          = 2025-11-28T04:33:37.550016
MEAN_MOTION    = 14.16136744
ECCENTRICITY   = .0013747
INCLINATION    = 71.0009
RA_OF_ASC_NODE = 5.0584
ARG_OF_PERICENTER = 175.2444
MEAN_ANOMALY   = 184.8812

EPHEMERIS_TYPE = 0
CLASSIFICATION_TYPE = U
NORAD_CAT_ID   = 19650
ELEMENT_SET_NO = 999
REV_AT_EPOCH   = 91252
BSTAR          = .78981E-4
MEAN_MOTION_DOT = .109E-5
MEAN_MOTION_DDOT = 0

CCSDS_OMM_VERS = 2.0
CREATION_DATE  = 
ORIGINATOR     = 

OBJECT_NAME    = INTERCOSMOS 24
OBJECT_ID      = 1989-080A
CENTER_NAME    = EARTH
REF_FRAME      = TEME
TIME_SYSTEM    = UTC
MEAN_ELEMENT_THEORY = SGP/SGP4

EPOCH          = 2025-11-28T01:05:58.351200
MEAN_MOTION    = 12.59400587
ECCENTRICITY   = .1188604
INCLINATION    = 82.6048
RA_OF_ASC_NODE = 170.5070
ARG_OF_PERICENTER = 168.5987
MEAN_ANOMALY   = 194.4805

EPHEMERIS_TYPE = 0
CLASSIFICATION_TYPE = U
NORAD_CAT_ID   = 20261
ELEMENT_SET_NO = 999
REV_AT_EPOCH   = 65400
BSTAR          = .25708E-3
MEAN_MOTION_DOT = .89E-5
MEAN_MOTION_DDOT = 0

CCSDS_OMM_VERS = 2.0
CREATION_DATE  = 
ORIGINATOR     = 

OBJECT_NAME    = SL-14 R/B
OBJECT_ID      = 1989-080C
CENTER_NAME    = EARTH
REF_FRAME      = TEME
TIME_SYSTEM    = UTC
MEAN_ELEMENT_THEORY = SGP/SGP4

EPOCH          = 2025-11-28T04:23:30.055200
MEAN_MOTION    = 12.50395480
ECCENTRICITY   = .1230907
INCLINATION    = 82.5941
RA_OF_ASC_NODE = 238.3624
ARG_OF_PERICENTER = 56.8495
MEAN_ANOMALY   = 314.4677

EPHEMERIS_TYPE = 0
CLASSIFICATION_TYPE = U
NORAD_CAT_ID   = 20262
ELEMENT_SET_NO = 999
REV_AT_EPOCH   = 64746
BSTAR          = .13856E-3
MEAN_MOTION_DOT = .487E-5
MEAN_MOTION_DDOT = 0

CCSDS_OMM_VERS = 2.0
CREATION_DATE  = 
ORIGINATOR     = 

OBJECT_NAME    = DELTA 1 R/B
OBJECT_ID      = 1989-089B
CENTER_NAME    = EARTH
REF_FRAME      = TEME
TIME_SYSTEM    = UTC
MEAN_ELEMENT_THEORY = SGP/SGP4

EPOCH          = 2025-11-28T02:02:17.742048
MEAN_MOTION    = 14.50554061
ECCENTRICITY   = .0070725
INCLINATION    = 97.0762
RA_OF_ASC_NODE = 190.6442
ARG_OF_PERICENTER = 83.7365
MEAN_ANOMALY   = 277.1883

EPHEMERIS_TYPE = 0
CLASSIFICATION_TYPE = U
NORAD_CAT_ID   = 20323
ELEMENT_SET_NO = 999
REV_AT_EPOCH   = 88100
BSTAR          = .11529E-3
MEAN_MOTION_DOT = .432E-5
MEAN_MOTION_DDOT = 0

