SL-14 R/B               
1 18749U 88001B   25331.89135333  .00000641  00000+0  71553-4 0  9990
2 18749  82.5118 291.1142 0017163 210.6954 149.3259 14.85399223 26918
COSMOS 1933             
1 18958U 88020A   25332.10957979  .00004248  00000+0  21391-3 0  9997
2 18958  82.5141 351.3337 0004404 170.8997 189.2317 15.16935168 34825
SL-3 R/B                
1 19046U 88032B   25332.10192777  .00006321  00000+0  30711-3 0  9996
2 19046  97.5072 310.9275 0025268 225.3427 134.5748 15.18519741 36684
SL-16 R/B               
1 19120U 88039B   25332.16097095 -.00000068  00000+0 -93883-5 0  9994
2 19120  71.0146 283.2231 0020283 140.6297 219.6308 14.19592960943976
COSMOS 1953             
1 19210U 88050A   25332.22042389  .00007456  00000+0  28217-3 0  9993
2 19210  82.5084 260.1463 0013625 115.4889 244.7760 15.26680881 22297
SL-8 R/B                
1 19257U 88053B   25332.08057976  .00000279  00000+0  98926-4 0  9990
2 19257  74.0471 299.7371 0019413 148.9510 283.5097 14.38845437961987
COSMOS 1975             
1 19573U 88093A   25332.09551368  .00010138  00000+0  39053-3 0  9990
2 19573  82.5210 219.4837 0011704 159.3056 200.8659 15.26148996  3904
SL-14 R/B               
1 19574U 88093B   25331.89872263  .00000617  00000+0  68395-4 0  9991
2 19574  82.5292 137.5947 0021208  19.0663  93.3330 14.85524859985925
SL-16 R/B               
1 19650U 88102B   25332.19001794  .00000109  00000+0  78981-4 0  9992
2 19650  71.0009   5.0584 0013747 175.2444 184.8812 14.16136744912529
INTERCOSMOS 24          
1 20261U 89080A   25332.04581425  .00000890  00000+0  25708-3 0  9991
2 20261  82.6048 170.5070 1188604 168.5987 194.4805 12.59400587654000
SL-14 R/B               
1 20262U 89080C   25332.18298675  .00000487  00000+0  13856-3 0  9992
2 20262  82.5941 238.3624 1230907  56.8495 314.4677 12.50395480647466
DELTA 1 R/B             
1 20323U 89089B   25332.08492757  .00000432  00000+0  11529-3 0  9990
2 20323  97.0762 190.6442 0070725  83.7365 277.1883 14.50554061881006
